OBJECT_NAME,OBJECT_ID,EPOCH,MEAN_MOTION,ECCENTRICITY,INCLINATION,RA_OF_ASC_NODE,ARG_OF_PERICENTER,MEAN_ANOMALY,EPHEMERIS_TYPE,CLASSIFICATION_TYPE,NORAD_CAT_ID,ELEMENT_SET_NO,REV_AT_EPOCH,BSTAR,MEAN_MOTION_DOT,MEAN_MOTION_DDOT
CUTE-1 (CO-55),2003-031E,2026-06-25T12:53:31.892352,14.24340467,.00100434,98.6736,184.9911,154.4508,205.7169,0,U,27844,999,19286,.1417721E-3,.284E-5,0
CUBESAT XI-IV (CO-57),2003-031J,2026-06-25T12:42:56.718432,14.23624963,.00095682,98.6767,184.6898,172.4685,187.6639,0,U,27848,999,19256,.12556894E-3,.243E-5,0
CUBESAT XI-V,2005-043F,2026-06-25T08:27:17.572608,14.72651786,.0014207,98.2992,332.1457,174.6504,185.4857,0,U,28895,999,10295,.22377985E-3,.1375E-4,0
CUTE-1.7+APD II (CO-65),2008-021C,2026-06-25T12:50:17.107008,15.09526758,.00089469,97.8275,158.1272,13.9329,346.2145,0,U,32785,999,98645,.3525197E-3,.5592E-4,0
CANX-2,2008-021H,2026-06-25T11:06:07.382880,15.05674043,.00109774,97.8638,156.4013,27.0684,333.1112,0,U,32790,999,98605,.28267094E-3,.4024E-4,0
SEEDS II (CO-66),2008-021J,2026-06-25T13:21:24.158304,15.33017433,.00003725,97.7517,174.8551,231.0753,129.0455,0,U,32791,999,98857,.71096461E-3,.22634E-3,0
SWISSCUBE,2009-051B,2026-06-25T05:48:18.641088,14.62495581,.00065459,98.4030,84.2704,176.2173,183.9079,0,U,35932,999,89033,.19415285E-3,.935E-5,0
BEESAT-1,2009-051C,2026-06-25T06:07:56.267904,14.61732314,.0004745,98.3958,83.9028,188.0709,172.0416,0,U,35933,999,89036,.1657904E-3,.777E-5,0
ITUPSAT1,2009-051E,2026-06-24T07:03:47.026656,14.60449650,.00066045,98.4043,82.1112,208.5040,151.5799,0,U,35935,999,88977,.13593293E-3,.61E-5,0
TISAT 1,2010-035E,2026-06-25T08:20:43.761408,15.31993568,.00024757,98.0701,123.6219,154.2212,205.9151,0,U,36799,999,86895,.77886286E-3,.24024E-3,0
AEROCUBE 4.5A,2012-048K,2026-06-25T05:20:58.285248,16.05876637,.00181462,64.6209,357.2594,245.5348,114.3927,0,U,38767,999,37394,.13743487E-2,.1017497E-1,.57351643E-3
STRAND-1,2013-009E,2026-06-25T11:31:32.235744,14.37167817,.00081824,98.3924,356.5105,198.4624,161.6268,0,U,39090,999,69825,.10766854E-3,.278E-5,0
BRITE-AUSTRIA,2013-009F,2026-06-25T11:55:14.511072,14.36545099,.00095433,98.3998,355.7268,209.3907,150.6744,0,U,39091,999,69824,.70556473E-4,.165E-5,0
NEE-01 PEGASO,2013-018B,2026-06-25T08:54:48.054528,14.93700411,.00135402,98.1231,320.7925,133.4455,226.7893,0,U,39151,999,71192,.23718564E-3,.2452E-4,0
POPACS 2,2013-055E,2026-06-24T14:59:18.141792,14.91388796,.04165769,80.9904,135.6783,169.8894,191.1047,0,U,39269,999,66432,.2467304E-3,.14675E-3,0
POPACS 3,2013-055F,2026-06-25T10:24:02.164032,14.56262976,.05512857,81.0001,220.2459,44.8920,319.5508,0,U,39270,999,63975,.26857135E-3,.11387E-3,0
ZACUBE-1 (TSHEPISOSAT),2013-066B,2026-06-25T11:20:24.520128,15.01229749,.00419393,97.8049,138.8520,219.3895,140.4277,0,U,39417,999,68197,.27394895E-3,.3519E-4,0
WNISAT-1,2013-066H,2026-06-25T09:03:45.032256,14.58076864,.01624642,97.7209,324.9529,205.6507,153.6571,0,U,39423,999,66792,.20037488E-3,.1056E-4,0
TRITON-1,2013-066M,2026-06-25T14:26:48.335712,14.81729394,.00889407,97.8240,86.2166,206.0497,153.6228,0,U,39427,999,67533,.17285673E-3,.1401E-4,0
GOMX-1,2013-066Q,2026-06-25T11:50:16.976256,14.69485800,.0129896,97.6486,16.4318,51.1867,310.0854,0,U,39430,999,67113,.26269917E-3,.1722E-4,0
CUBEBUG-2 (LO-74),2013-066AA,2026-06-25T10:28:12.500256,14.93825366,.00576104,97.8903,125.4492,1.8777,358.2648,0,U,39440,999,67822,.40195716E-3,.4345E-4,0
NEE-02 KRYSAOR,2013-066AB,2026-06-25T13:19:35.191488,14.86653035,.00672285,97.8891,115.7100,43.3544,317.2932,0,U,39441,999,67744,.28387397E-3,.2568E-4,0
FUNCUBE-1 (AO-73),2013-066AE,2026-06-25T11:24:06.905088,15.09577582,.00365156,97.8270,148.0938,172.7901,187.3861,0,U,39444,999,68091,.51483514E-3,.8333E-4,0
UWE-3,2013-066AG,2026-06-24T10:25:21.919008,14.97078120,.00468419,97.8706,131.5569,296.6681,62.9747,0,U,39446,999,67866,.34049594E-3,.3951E-4,0
BRITE-CA1 (TORONTO),2014-033L,2026-06-24T15:32:29.342976,14.72686478,.0077269,97.9747,304.4382,252.6981,106.5763,0,U,40020,999,64331,.11129558E-3,.689E-5,0
DUCHIFAT-1,2014-033M,2026-06-24T10:30:03.579552,15.65947368,.00018424,98.0461,235.6243,104.9324,255.2139,0,U,40021,999,65688,.10238096E-2,.105271E-2,0
NANOSATC-BR1,2014-033Q,2026-06-25T01:05:33.637344,15.31685153,.00050145,98.0726,209.1307,143.6872,216.4709,0,U,40024,999,65518,.65250389E-3,.19914E-3,0
QB50P1,2014-033R,2026-06-25T12:28:37.225056,15.18376533,.00086721,98.0964,188.2502,185.6862,174.4273,0,U,40025,999,65429,.51209345E-3,.10465E-3,0
QB50P2,2014-033Y,2026-06-25T11:41:22.384896,15.15257209,.00087259,98.0752,173.8841,138.5808,221.6085,0,U,40032,999,65392,.44421124E-3,.8291E-4,0
PERSEUS-M2,2014-033AD,2026-06-25T13:26:56.914944,14.95538646,.00099382,97.9972,127.2708,273.8369,86.1715,0,U,40037,999,65203,.17994033E-3,.1935E-4,0
