CUTE-1 (CO-55)          
1 27844U 03031E   26176.53717468  .00000284  00000+0  14177-3 0  9991
2 27844  98.6736 184.9911 0010043 154.4508 205.7169 14.24340467192865
CUBESAT XI-IV (CO-57)   
1 27848U 03031J   26176.52982313  .00000243  00000+0  12557-3 0  9992
2 27848  98.6767 184.6898 0009568 172.4685 187.6639 14.23624963192562
CUBESAT XI-V            
1 28895U 05043F   26176.35228672  .00001375  00000+0  22378-3 0  9991
2 28895  98.2992 332.1457 0014207 174.6504 185.4857 14.72651786102951
CUTE-1.7+APD II (CO-65) 
1 32785U 08021C   26176.53492022  .00005592  00000+0  35252-3 0  9995
2 32785  97.8275 158.1272 0008946  13.9329 346.2145 15.09526758986450
CANX-2                  
1 32790U 08021H   26176.46258545  .00004024  00000+0  28267-3 0  9990
2 32790  97.8638 156.4013 0010977  27.0684 333.1112 15.05674043986052
SEEDS II (CO-66)        
1 32791U 08021J   26176.55652961  .00022634  00000+0  71096-3 0  9996
2 32791  97.7517 174.8551 0000372 231.0753 129.0455 15.33017433988577
SWISSCUBE               
1 35932U 09051B   26176.24188242  .00000935  00000+0  19415-3 0  9999
2 35932  98.4030  84.2704 0006545 176.2173 183.9079 14.62495581890335
BEESAT-1                
1 35933U 09051C   26176.25551236  .00000777  00000+0  16579-3 0  9990
2 35933  98.3958  83.9028 0004745 188.0709 172.0416 14.61732314890369
ITUPSAT1                
1 35935U 09051E   26175.29429429  .00000610  00000+0  13593-3 0  9992
2 35935  98.4043  82.1112 0006604 208.5040 151.5799 14.60449650889770
TISAT 1                 
1 36799U 10035E   26176.34772872  .00024024  00000+0  77886-3 0  9995
2 36799  98.0701 123.6219 0002475 154.2212 205.9151 15.31993568868959
AEROCUBE 4.5A           
1 38767U 12048K   26176.22289682  .01017497  57352-3  13743-2 0  9991
2 38767  64.6209 357.2594 0018146 245.5348 114.3927 16.05876637373948
STRAND-1                
1 39090U 13009E   26176.48023421  .00000278  00000+0  10767-3 0  9990
2 39090  98.3924 356.5105 0008182 198.4624 161.6268 14.37167817698251
BRITE-AUSTRIA           
1 39091U 13009F   26176.49669573  .00000165  00000+0  70556-4 0  9994
2 39091  98.3998 355.7268 0009543 209.3907 150.6744 14.36545099698249
NEE-01 PEGASO           
1 39151U 13018B   26176.37138952  .00002452  00000+0  23719-3 0  9999
2 39151  98.1231 320.7925 0013540 133.4455 226.7893 14.93700411711928
POPACS 2                
1 39269U 13055E   26175.62451553  .00014675  00000+0  24673-3 0  9992
2 39269  80.9904 135.6783 0416576 169.8894 191.1047 14.91388796664328
POPACS 3                
1 39270U 13055F   26176.43335838  .00011387  00000+0  26857-3 0  9994
2 39270  81.0001 220.2459 0551285  44.8920 319.5508 14.56262976639759
ZACUBE-1 (TSHEPISOSAT)  
1 39417U 13066B   26176.47250602  .00003519  00000+0  27395-3 0  9994
2 39417  97.8049 138.8520 0041939 219.3895 140.4277 15.01229749681979
WNISAT-1                
1 39423U 13066H   26176.37760454  .00001056  00000+0  20037-3 0  9991
2 39423  97.7209 324.9529 0162464 205.6507 153.6571 14.58076864667926
TRITON-1                
1 39427U 13066M   26176.60194833  .00001401  00000+0  17286-3 0  9999
2 39427  97.8240  86.2166 0088940 206.0497 153.6228 14.81729394675332
GOMX-1                  
1 39430U 13066Q   26176.49325204  .00001722  00000+0  26270-3 0  9997
2 39430  97.6486  16.4318 0129896  51.1867 310.0854 14.69485800671131
CUBEBUG-2 (LO-74)       
1 39440U 13066AA  26176.43625579  .00004345  00000+0  40196-3 0  9997
2 39440  97.8903 125.4492 0057610   1.8777 358.2648 14.93825366678222
NEE-02 KRYSAOR          
1 39441U 13066AB  26176.55526842  .00002568  00000+0  28387-3 0  9997
2 39441  97.8891 115.7100 0067228  43.3544 317.2932 14.86653035677444
FUNCUBE-1 (AO-73)       
1 39444U 13066AE  26176.47507992  .00008333  00000+0  51484-3 0  9996
2 39444  97.8270 148.0938 0036515 172.7901 187.3861 15.09577582680916
UWE-3                   
1 39446U 13066AG  26175.43428147  .00003951  00000+0  34050-3 0  9998
2 39446  97.8706 131.5569 0046841 296.6681  62.9747 14.97078120678663
BRITE-CA1 (TORONTO)     
1 40020U 14033L   26175.64756184  .00000689  00000+0  11130-3 0  9990
2 40020  97.9747 304.4382 0077269 252.6981 106.5763 14.72686478643317
DUCHIFAT-1              
1 40021U 14033M   26175.43754143  .00105271  00000+0  10238-2 0  9991
2 40021  98.0461 235.6243 0001842 104.9324 255.2139 15.65947368656884
NANOSATC-BR1            
1 40024U 14033Q   26176.04552821  .00019914  00000+0  65250-3 0  9994
2 40024  98.0726 209.1307 0005014 143.6872 216.4709 15.31685153655189
QB50P1                  
1 40025U 14033R   26176.51987529  .00010465  00000+0  51209-3 0  9995
2 40025  98.0964 188.2502 0008672 185.6862 174.4273 15.18376533654290
QB50P2                  
1 40032U 14033Y   26176.48706464  .00008291  00000+0  44421-3 0  9998
2 40032  98.0752 173.8841 0008725 138.5808 221.6085 15.15257209653925
PERSEUS-M2              
1 40037U 14033AD  26176.56038096  .00001935  00000+0  17994-3 0  9994
2 40037  97.9972 127.2708 0009938 273.8369  86.1715 14.95538646652038
